TEVEL2-5                
1 63214U 25052E   26068.96660006  .00021339  00000+0  71765-3 0  9991
2 63214  97.4013 325.3677 0004700  95.3936 264.7842 15.30817434 54919
STARLINK-34302          
1 65216U 25176U   26068.47290976  .00021193  00000+0  72558-3 0  9992
2 65216  53.1595 153.9872 0001264 134.6336 225.4768 15.30202628 33081
